{"type": "FeatureCollection", "features": [ {"type": "Feature", "properties": {"norad_id": 66613, "name": "STARLINK-36037", "group": "last-30-days", "lat": 34.476259901016206, "lon": 15.642260082883215, "alt_km": 333.4471719373687, "timestamp": "2025-12-04T05:42:42.159460+00:00", "meta": {"OBJECT_NAME": "STARLINK-36037", "OBJECT_ID": "2025-270AB", "EPOCH": "2025-12-03T10:57:19.045152", "MEAN_MOTION": 15.77412165, "ECCENTRICITY": 0.0004122, "INCLINATION": 43.0001, "RA_OF_ASC_NODE": 247.8703, "ARG_OF_PERICENTER": 349.4174, "MEAN_ANOMALY": 10.6608, "EPHEMERIS_TYPE": 0, "CLASSIFICATION_TYPE": "U", "NORAD_CAT_ID": 66613, "ELEMENT_SET_NO": 999, "REV_AT_EPOCH": 289, "BSTAR": 0.00072767216, "MEAN_MOTION_DOT": 0.00125531, "MEAN_MOTION_DDOT": 0}, "tle": {"line1": "1 66613U 25270AB  25337.45647043  .00125531  00000+0  72767-3 0  9999", "line2": "2 66613  43.0001 247.8703 0004122 349.4174  10.6608 15.77412165  2893"}}, "geometry": {"type": "Point", "coordinates": [15.642260082883215, 34.476259901016206]}}, {"type": "Feature", "properties": {"norad_id": 66614, "name": "STARLINK-36040", "group": "last-30-days", "lat": 35.056955033570695, "lon": 14.256988627383993, "alt_km": 339.74145853034315, "timestamp": "2025-12-04T05:42:42.159470+00:00", "meta": {"OBJECT_NAME": "STARLINK-36040", "OBJECT_ID": "2025-270AC", "EPOCH": "2025-12-03T18:32:36.736224", "MEAN_MOTION": 15.75809834, "ECCENTRICITY": 0.00013637, "INCLINATION": 42.9975, "RA_OF_ASC_NODE": 245.9411, "ARG_OF_PERICENTER": 296.187, "MEAN_ANOMALY": 63.8859, "EPHEMERIS_TYPE": 0, "CLASSIFICATION_TYPE": "U", "NORAD_CAT_ID": 66614, "ELEMENT_SET_NO": 999, "REV_AT_EPOCH": 278, "BSTAR": -0.0049021445, "MEAN_MOTION_DOT": -0.00716645, "MEAN_MOTION_DDOT": 0}, "tle": {"line1": "1 66614U 25270AC  25337.77264741 -.00716645  00000+0 -49021-2 0  9995", "line2": "2 66614  42.9975 245.9411 0001363 296.1870  63.8859 15.75809834  2789"}}, "geometry": {"type": "Point", "coordinates": [14.256988627383993, 35.056955033570695]}}, {"type": "Feature", "properties": {"norad_id": 66615, "name": "STARLINK-35988", "group": "last-30-days", "lat": 33.59296868314093, "lon": 17.642375974229243, "alt_km": 333.62069514432187, "timestamp": "2025-12-04T05:42:42.159482+00:00", "meta": {"OBJECT_NAME": "STARLINK-35988", "OBJECT_ID": "2025-270AD", "EPOCH": "2025-12-03T10:56:49.071264", "MEAN_MOTION": 15.7738351, "ECCENTRICITY": 0.0003977, "INCLINATION": 43.0005, "RA_OF_ASC_NODE": 247.8673, "ARG_OF_PERICENTER": 351.7564, "MEAN_ANOMALY": 8.324, "EPHEMERIS_TYPE": 0, "CLASSIFICATION_TYPE": "U", "NORAD_CAT_ID": 66615, "ELEMENT_SET_NO": 999, "REV_AT_EPOCH": 273, "BSTAR": 0.00069290673, "MEAN_MOTION_DOT": 0.00119264, "MEAN_MOTION_DDOT": 0}, "tle": {"line1": "1 66615U 25270AD  25337.45612351  .00119264  00000+0  69291-3 0  9999", "line2": "2 66615  43.0005 247.8673 0003977 351.7564   8.3240 15.77383510  2731"}}, "geometry": {"type": "Point", "coordinates": [17.642375974229243, 33.59296868314093]}}, {"type": "Feature", "properties": {"norad_id": 66616, "name": "STARLINK-35391", "group": "last-30-days", "lat": 34.16637908406215, "lon": 16.354232666682744, "alt_km": 339.40015659597975, "timestamp": "2025-12-04T05:42:42.159492+00:00", "meta": {"OBJECT_NAME": "STARLINK-35391", "OBJECT_ID": "2025-270AE", "EPOCH": "2025-12-03T18:32:06.642240", "MEAN_MOTION": 15.7580901, "ECCENTRICITY": 0.00032408, "INCLINATION": 42.9974, "RA_OF_ASC_NODE": 245.9395, "ARG_OF_PERICENTER": 227.2502, "MEAN_ANOMALY": 132.8095, "EPHEMERIS_TYPE": 0, "CLASSIFICATION_TYPE": "U", "NORAD_CAT_ID": 66616, "ELEMENT_SET_NO": 999, "REV_AT_EPOCH": 305, "BSTAR": -0.0047598079, "MEAN_MOTION_DOT": -0.00697893, "MEAN_MOTION_DDOT": 0}, "tle": {"line1": "1 66616U 25270AE  25337.77229910 -.00697893  00000+0 -47598-2 0  9996", "line2": "2 66616  42.9974 245.9395 0003240 227.2502 132.8095 15.75809010  3050"}}, "geometry": {"type": "Point", "coordinates": [16.354232666682744, 34.16637908406215]}}, {"type": "Feature", "properties": {"norad_id": 66617, "name": "STARLINK-35940", "group": "last-30-days", "lat": -20.602177030041563, "lon": -147.38381131081798, "alt_km": 329.07190484633884, "timestamp": "2025-12-04T05:42:42.159517+00:00", "meta": {"OBJECT_NAME": "STARLINK-35940", "OBJECT_ID": "2025-271A", "EPOCH": "2025-12-03T22:00:03.000096", "MEAN_MOTION": 15.82715545, "ECCENTRICITY": 6.658e-05, "INCLINATION": 53.1573, "RA_OF_ASC_NODE": 230.6018, "ARG_OF_PERICENTER": 97.8995, "MEAN_ANOMALY": 205.0209, "EPHEMERIS_TYPE": 0, "CLASSIFICATION_TYPE": "U", "NORAD_CAT_ID": 66617, "ELEMENT_SET_NO": 999, "REV_AT_EPOCH": 282, "BSTAR": -0.0076253254, "MEAN_MOTION_DOT": -0.01453907, "MEAN_MOTION_DDOT": 0}, "tle": {"line1": "1 66617U 25271A   25337.91670139 -.01453907  00000+0 -76253-2 0  9994", "line2": "2 66617  53.1573 230.6018 0000665  97.8995 205.0209 15.82715545  2829"}}, "geometry": {"type": "Point", "coordinates": [-147.38381131081798, -20.602177030041563]}}, {"type": "Feature", "properties": {"norad_id": 66618, "name": "STARLINK-35970", "group": "last-30-days", "lat": 36.248325398426125, "lon": -97.81542243928264, "alt_km": 326.24522838833127, "timestamp": "2025-12-04T05:42:42.159527+00:00", "meta": {"OBJECT_NAME": "STARLINK-35970", "OBJECT_ID": "2025-271B", "EPOCH": "2025-12-03T22:00:03.000096", "MEAN_MOTION": 15.81308785, "ECCENTRICITY": 7.147e-05, "INCLINATION": 53.1565, "RA_OF_ASC_NODE": 230.4436, "ARG_OF_PERICENTER": 93.975, "MEAN_ANOMALY": 284.6242, "EPHEMERIS_TYPE": 0, "CLASSIFICATION_TYPE": "U", "NORAD_CAT_ID": 66618, "ELEMENT_SET_NO": 999, "REV_AT_EPOCH": 282, "BSTAR": -0.012834203, "MEAN_MOTION_DOT": -0.02253809, "MEAN_MOTION_DDOT": 0}, "tle": {"line1": "1 66618U 25271B   25337.91670139 -.02253809  00000+0 -12834-1 0  9999", "line2": "2 66618  53.1565 230.4436 0000714  93.9750 284.6242 15.81308785  2827"}}, "geometry": {"type": "Point", "coordinates": [-97.81542243928264, 36.248325398426125]}}, {"type": "Feature", "properties": {"norad_id": 66619, "name": "STARLINK-35951", "group": "last-30-days", "lat": -13.703462923501633, "lon": -141.56566694070807, "alt_km": 328.544517242638, "timestamp": "2025-12-04T05:42:42.159537+00:00", "meta": {"OBJECT_NAME": "STARLINK-35951", "OBJECT_ID": "2025-271C", "EPOCH": "2025-12-03T22:00:03.000096", "MEAN_MOTION": 15.82737362, "ECCENTRICITY": 6.716e-05, "INCLINATION": 53.157, "RA_OF_ASC_NODE": 230.5831, "ARG_OF_PERICENTER": 101.8066, "MEAN_ANOMALY": 210.0039, "EPHEMERIS_TYPE": 0, "CLASSIFICATION_TYPE": "U", "NORAD_CAT_ID": 66619, "ELEMENT_SET_NO": 999, "REV_AT_EPOCH": 282, "BSTAR": -0.0081572283, "MEAN_MOTION_DOT": -0.01544371, "MEAN_MOTION_DDOT": 0}, "tle": {"line1": "1 66619U 25271C   25337.91670139 -.01544371  00000+0 -81572-2 0  9992", "line2": "2 66619  53.1570 230.5831 0000671 101.8066 210.0039 15.82737362  2820"}}, "geometry": {"type": "Point", "coordinates": [-141.56566694070807, -13.703462923501633]}}, {"type": "Feature", "properties": {"norad_id": 66620, "name": "STARLINK-35936", "group": "last-30-days", "lat": -18.942059797501464, "lon": -145.92852135686755, "alt_km": 328.911687957132, "timestamp": "2025-12-04T05:42:42.159547+00:00", "meta": {"OBJECT_NAME": "STARLINK-35936", "OBJECT_ID": "2025-271D", "EPOCH": "2025-12-03T22:00:03.000096", "MEAN_MOTION": 15.82729198, "ECCENTRICITY": 6.4e-05, "INCLINATION": 53.1572, "RA_OF_ASC_NODE": 230.5973, "ARG_OF_PERICENTER": 97.0279, "MEAN_ANOMALY": 208.0431, "EPHEMERIS_TYPE": 0, "CLASSIFICATION_TYPE": "U", "NORAD_CAT_ID": 66620, "ELEMENT_SET_NO": 999, "REV_AT_EPOCH": 282, "BSTAR": -0.007752868, "MEAN_MOTION_DOT": -0.01476233, "MEAN_MOTION_DDOT": 0}, "tle": {"line1": "1 66620U 25271D   25337.91670139 -.01476233  00000+0 -77529-2 0  9992", "line2": "2 66620  53.1572 230.5973 0000640  97.0279 208.0431 15.82729198  2820"}}, "geometry": {"type": "Point", "coordinates": [-145.92852135686755, -18.942059797501464]}}, {"type": "Feature", "properties": {"norad_id": 66621, "name": "STARLINK-35847", "group": "last-30-days", "lat": 39.74654831957351, "lon": -92.6014162629755, "alt_km": 326.9081918079528, "timestamp": "2025-12-04T05:42:42.159557+00:00", "meta": {"OBJECT_NAME": "STARLINK-35847", "OBJECT_ID": "2025-271E", "EPOCH": "2025-12-03T22:00:03.000096", "MEAN_MOTION": 15.80957471, "ECCENTRICITY": 7.332e-05, "INCLINATION": 53.1564, "RA_OF_ASC_NODE": 230.4315, "ARG_OF_PERICENTER": 104.6611, "MEAN_ANOMALY": 279.779, "EPHEMERIS_TYPE": 0, "CLASSIFICATION_TYPE": "U", "NORAD_CAT_ID": 66621, "ELEMENT_SET_NO": 999, "REV_AT_EPOCH": 282, "BSTAR": -0.013604117, "MEAN_MOTION_DOT": -0.02336764, "MEAN_MOTION_DDOT": 0}, "tle": {"line1": "1 66621U 25271E   25337.91670139 -.02336764  00000+0 -13604-1 0  9991", "line2": "2 66621  53.1564 230.4315 0000733 104.6611 279.7790 15.80957471  2827"}}, "geometry": {"type": "Point", "coordinates": [-92.6014162629755, 39.74654831957351]}}, {"type": "Feature", "properties": {"norad_id": 66622, "name": "STARLINK-35950", "group": "last-30-days", "lat": -11.757228357372277, "lon": -140.01435630267252, "alt_km": 328.2931867423031, "timestamp": "2025-12-04T05:42:42.159589+00:00", "meta": {"OBJECT_NAME": "STARLINK-35950", "OBJECT_ID": "2025-271F", "EPOCH": "2025-12-03T22:00:03.000096", "MEAN_MOTION": 15.82708293, "ECCENTRICITY": 5.052e-05, "INCLINATION": 53.157, "RA_OF_ASC_NODE": 230.5778, "ARG_OF_PERICENTER": 85.6752, "MEAN_ANOMALY": 228.6417, "EPHEMERIS_TYPE": 0, "CLASSIFICATION_TYPE": "U", "NORAD_CAT_ID": 66622, "ELEMENT_SET_NO": 999, "REV_AT_EPOCH": 282, "BSTAR": -0.0082242808, "MEAN_MOTION_DOT": -0.01553496, "MEAN_MOTION_DDOT": 0}, "tle": {"line1": "1 66622U 25271F   25337.91670139 -.01553496  00000+0 -82243-2 0  9990", "line2": "2 66622  53.1570 230.5778 0000505  85.6752 228.6417 15.82708293  2827"}}, "geometry": {"type": "Point", "coordinates": [-140.01435630267252, -11.757228357372277]}}]}